[{"OBJECT_NAME":"MAKERSAT 0","OBJECT_ID":"2017-073D","EPOCH":"2026-03-09T15:16:53.554944","MEAN_MOTION":15.27797199,"ECCENTRICITY":0.0115258,"INCLINATION":97.4777,"RA_OF_ASC_NODE":310.6155,"ARG_OF_PERICENTER":266.0743,"MEAN_ANOMALY":92.7313,"EPHEMERIS_TYPE":0,"CLASSIFICATION_TYPE":"U","NORAD_CAT_ID":43016,"ELEMENT_SET_NO":999,"REV_AT_EPOCH":45124,"BSTAR":0.0007159,"MEAN_MOTION_DOT":0.00023659,"MEAN_MOTION_DDOT":0},{"OBJECT_NAME":"STARLINK-34210","OBJECT_ID":"2025-211B","EPOCH":"2026-03-09T17:16:04.010304","MEAN_MOTION":15.05646869,"ECCENTRICITY":0.00013476,"INCLINATION":97.6026,"RA_OF_ASC_NODE":114.0515,"ARG_OF_PERICENTER":102.4325,"MEAN_ANOMALY":257.7053,"EPHEMERIS_TYPE":0,"CLASSIFICATION_TYPE":"U","NORAD_CAT_ID":65653,"ELEMENT_SET_NO":999,"REV_AT_EPOCH":2704,"BSTAR":0.00014724666,"MEAN_MOTION_DOT":2.064e-5,"MEAN_MOTION_DDOT":0}]
